[
    {
        "Altitude(m)": 557166.8349319523,
        "Argument of Periapsis(deg)": 0.026491964442854003,
        "Eccentricity": 0.0,
        "Inclination(deg)": 53.0,
        "Latitude(deg)": -14.278683942035956,
        "Longitude(deg)": -99.17937464340459,
        "Mean Anomaly(deg)": 342.1846714703103,
        "RAAN(deg)": 14.960573474112067,
        "Satellite Name": "Starlink Shell 1 84",
        "Satellite Number": 84,
        "Semi-Major Axis(m)": 6931778.249405717,
        "Time(s)": 760
    },
    {
        "Altitude(m)": 557031.0396861567,
        "Argument of Periapsis(deg)": 0.02684054292236524,
        "Eccentricity": 0.0,
        "Inclination(deg)": 53.0,
        "Latitude(deg)": -13.784291362778475,
        "Longitude(deg)": -98.82092404547356,
        "Mean Anomaly(deg)": 342.8115026738671,
        "RAAN(deg)": 14.960054704034594,
        "Satellite Name": "Starlink Shell 1 84",
        "Satellite Number": 84,
        "Semi-Major Axis(m)": 6931778.249405717,
        "Time(s)": 770
    },
    {
        "Altitude(m)": 556897.3292974976,
        "Argument of Periapsis(deg)": 0.027189121401876473,
        "Eccentricity": 0.0,
        "Inclination(deg)": 53.0,
        "Latitude(deg)": -13.28921863996299,
        "Longitude(deg)": -98.46414043531696,
        "Mean Anomaly(deg)": 343.4383338774238,
        "RAAN(deg)": 14.95953593395712,
        "Satellite Name": "Starlink Shell 1 84",
        "Satellite Number": 84,
        "Semi-Major Axis(m)": 6931778.249405717,
        "Time(s)": 780
    },
    {
        "Altitude(m)": 556765.7457544216,
        "Argument of Periapsis(deg)": 0.02753769988138771,
        "Eccentricity": 0.0,
        "Inclination(deg)": 53.0,
        "Latitude(deg)": -12.793493071188662,
        "Longitude(deg)": -98.10895660383889,
        "Mean Anomaly(deg)": 344.0651650809805,
        "RAAN(deg)": 14.95901716387965,
        "Satellite Name": "Starlink Shell 1 84",
        "Satellite Number": 84,
        "Semi-Major Axis(m)": 6931778.249405717,
        "Time(s)": 790
    },
    {
        "Altitude(m)": 556636.3299520889,
        "Argument of Periapsis(deg)": 0.02788627836089895,
        "Eccentricity": 0.0,
        "Inclination(deg)": 53.0,
        "Latitude(deg)": -12.297141613524676,
        "Longitude(deg)": -97.75530652595201,
        "Mean Anomaly(deg)": 344.69199628453725,
        "RAAN(deg)": 14.958498393802175,
        "Satellite Name": "Starlink Shell 1 84",
        "Satellite Number": 84,
        "Semi-Major Axis(m)": 6931778.249405717,
        "Time(s)": 800
    },
    {
        "Altitude(m)": 556509.1216747883,
        "Argument of Periapsis(deg)": 0.02823485684041019,
        "Eccentricity": 0.0,
        "Inclination(deg)": 53.0,
        "Latitude(deg)": -11.800190899021866,
        "Longitude(deg)": -97.40312482960816,
        "Mean Anomaly(deg)": -14.681172511906075,
        "RAAN(deg)": 14.957979623724702,
        "Satellite Name": "Starlink Shell 1 84",
        "Satellite Number": 84,
        "Semi-Major Axis(m)": 6931778.249405717,
        "Time(s)": 810
    },
    {
        "Altitude(m)": 556384.1595788017,
        "Argument of Periapsis(deg)": 0.028583435319921423,
        "Eccentricity": 0.0,
        "Inclination(deg)": 53.0,
        "Latitude(deg)": -11.302667249927039,
        "Longitude(deg)": -97.05234626486512,
        "Mean Anomaly(deg)": -14.054341308349365,
        "RAAN(deg)": 14.957460853647229,
        "Satellite Name": "Starlink Shell 1 84",
        "Satellite Number": 84,
        "Semi-Major Axis(m)": 6931778.249405717,
        "Time(s)": 820
    },
    {
        "Altitude(m)": 556261.4811759403,
        "Argument of Periapsis(deg)": 0.028932013799432665,
        "Eccentricity": 0.0,
        "Inclination(deg)": 53.0,
        "Latitude(deg)": -10.804596693613068,
        "Longitude(deg)": -96.70290668587499,
        "Mean Anomaly(deg)": -13.427510104792606,
        "RAAN(deg)": 14.956942083569759,
        "Satellite Name": "Starlink Shell 1 84",
        "Satellite Number": 84,
        "Semi-Major Axis(m)": 6931778.249405717,
        "Time(s)": 830
    },
    {
        "Altitude(m)": 556141.1228175272,
        "Argument of Periapsis(deg)": 0.029280592278943897,
        "Eccentricity": 0.0,
        "Inclination(deg)": 53.0,
        "Latitude(deg)": -10.306004977237496,
        "Longitude(deg)": -96.35474252005599,
        "Mean Anomaly(deg)": -12.800678901235946,
        "RAAN(deg)": 14.956423313492282,
        "Satellite Name": "Starlink Shell 1 84",
        "Satellite Number": 84,
        "Semi-Major Axis(m)": 6931778.249405717,
        "Time(s)": 840
    },
    {
        "Altitude(m)": 556023.1196790588,
        "Argument of Periapsis(deg)": 0.029629170758455132,
        "Eccentricity": 0.0,
        "Inclination(deg)": 53.0,
        "Latitude(deg)": -9.806917582140871,
        "Longitude(deg)": -96.00779023732969,
        "Mean Anomaly(deg)": -12.173847697679236,
        "RAAN(deg)": 14.955904543414809,
        "Satellite Name": "Starlink Shell 1 84",
        "Satellite Number": 84,
        "Semi-Major Axis(m)": 6931778.249405717,
        "Time(s)": 850
    },
    {
        "Altitude(m)": 555907.5057453754,
        "Argument of Periapsis(deg)": 0.02997774923796637,
        "Eccentricity": 0.0,
        "Inclination(deg)": 53.0,
        "Latitude(deg)": -9.307359737997668,
        "Longitude(deg)": -95.66198750040151,
        "Mean Anomaly(deg)": -11.547016494122477,
        "RAAN(deg)": 14.955385773337339,
        "Satellite Name": "Starlink Shell 1 84",
        "Satellite Number": 84,
        "Semi-Major Axis(m)": 6931778.249405717,
        "Time(s)": 860
    },
    {
        "Altitude(m)": 555794.3137964625,
        "Argument of Periapsis(deg)": 0.030326327717477602,
        "Eccentricity": 0.0,
        "Inclination(deg)": 53.0,
        "Latitude(deg)": -8.80735643673261,
        "Longitude(deg)": -95.31727179366148,
        "Mean Anomaly(deg)": -10.920185290565767,
        "RAAN(deg)": 14.954867003259865,
        "Satellite Name": "Starlink Shell 1 84",
        "Satellite Number": 84,
        "Semi-Major Axis(m)": 6931778.249405717,
        "Time(s)": 870
    },
    {
        "Altitude(m)": 555683.5753938431,
        "Argument of Periapsis(deg)": 0.030674906196988847,
        "Eccentricity": 0.0,
        "Inclination(deg)": 53.0,
        "Latitude(deg)": -8.306932446212604,
        "Longitude(deg)": -94.97358157362191,
        "Mean Anomaly(deg)": -10.293354087009057,
        "RAAN(deg)": 14.954348233182392,
        "Satellite Name": "Starlink Shell 1 84",
        "Satellite Number": 84,
        "Semi-Major Axis(m)": 6931778.249405717,
        "Time(s)": 880
    },
    {
        "Altitude(m)": 555575.320867555,
        "Argument of Periapsis(deg)": 0.031023484676500086,
        "Eccentricity": 0.0,
        "Inclination(deg)": 53.0,
        "Latitude(deg)": -7.806112323728738,
        "Longitude(deg)": -94.63085573846713,
        "Mean Anomaly(deg)": -9.66652288345235,
        "RAAN(deg)": 14.953829463104922,
        "Satellite Name": "Starlink Shell 1 84",
        "Satellite Number": 84,
        "Semi-Major Axis(m)": 6931778.249405717,
        "Time(s)": 890
    },
    {
        "Altitude(m)": 555469.5793037673,
        "Argument of Periapsis(deg)": 0.03137206315601132,
        "Eccentricity": 0.0,
        "Inclination(deg)": 53.0,
        "Latitude(deg)": -7.304920429278853,
        "Longitude(deg)": -94.28903309768674,
        "Mean Anomaly(deg)": -9.039691679895588,
        "RAAN(deg)": 14.953310693027447,
        "Satellite Name": "Starlink Shell 1 84",
        "Satellite Number": 84,
        "Semi-Major Axis(m)": 6931778.249405717,
        "Time(s)": 900
    },
    {
        "Altitude(m)": 555366.3785330101,
        "Argument of Periapsis(deg)": 0.03172064163552255,
        "Eccentricity": 0.0,
        "Inclination(deg)": 53.0,
        "Latitude(deg)": -6.803380938662812,
        "Longitude(deg)": -93.94805335466735,
        "Mean Anomaly(deg)": -8.412860476338928,
        "RAAN(deg)": 14.952791922949974,
        "Satellite Name": "Starlink Shell 1 84",
        "Satellite Number": 84,
        "Semi-Major Axis(m)": 6931778.249405717,
        "Time(s)": 910
    },
    {
        "Altitude(m)": 555265.7451190165,
        "Argument of Periapsis(deg)": 0.0320692201150338,
        "Eccentricity": 0.0,
        "Inclination(deg)": 53.0,
        "Latitude(deg)": -6.301517856402335,
        "Longitude(deg)": -93.60785657649225,
        "Mean Anomaly(deg)": -7.786029272782168,
        "RAAN(deg)": 14.9522731528725,
        "Satellite Name": "Starlink Shell 1 84",
        "Satellite Number": 84,
        "Semi-Major Axis(m)": 6931778.249405717,
        "Time(s)": 920
    },
    {
        "Altitude(m)": 555167.7043481983,
        "Argument of Periapsis(deg)": 0.032417798594545036,
        "Eccentricity": 0.0,
        "Inclination(deg)": 53.0,
        "Latitude(deg)": -5.7993550284984705,
        "Longitude(deg)": -93.26838266382352,
        "Mean Anomaly(deg)": -7.159198069225461,
        "RAAN(deg)": 14.95175438279503,
        "Satellite Name": "Starlink Shell 1 84",
        "Satellite Number": 84,
        "Semi-Major Axis(m)": 6931778.249405717,
        "Time(s)": 930
    },
    {
        "Altitude(m)": 555072.280219794,
        "Argument of Periapsis(deg)": 0.03276637707405627,
        "Eccentricity": 0.0,
        "Inclination(deg)": 53.0,
        "Latitude(deg)": -5.29691615503577,
        "Longitude(deg)": -92.92957233373554,
        "Mean Anomaly(deg)": -6.5323668656688,
        "RAAN(deg)": 14.951235612717557,
        "Satellite Name": "Starlink Shell 1 84",
        "Satellite Number": 84,
        "Semi-Major Axis(m)": 6931778.249405717,
        "Time(s)": 940
    }
]